{
  "data": {
    "messages": {
      "title_select": "Select a country",
      "hint_search": "Search...",
      "title_not_found": "Results not found",
      "title_cancel": "Cancel"
    },
    "countries": {
      "country": [
        {
          "name": "Andorra",
          "english_name": "Andorra",
          "name_code": "ad",
          "phone_code": "376"
        },
        {
          "name": "United Arab Emirates (UAE)",
          "english_name": "United Arab Emirates (UAE)",
          "name_code": "ae",
          "phone_code": "971"
        },
        {
          "name": "Afghanistan",
          "english_name": "Afghanistan",
          "name_code": "af",
          "phone_code": "93"
        },
        {
          "name": "Antigua and Barbuda",
          "english_name": "Antigua and Barbuda",
          "name_code": "ag",
          "phone_code": "1"
        },
        {
          "name": "Anguilla",
          "english_name": "Anguilla",
          "name_code": "ai",
          "phone_code": "1"
        },
        {
          "name": "Albania",
          "english_name": "Albania",
          "name_code": "al",
          "phone_code": "355"
        },
        {
          "name": "Armenia",
          "english_name": "Armenia",
          "name_code": "am",
          "phone_code": "374"
        },
        {
          "name": "Angola",
          "english_name": "Angola",
          "name_code": "ao",
          "phone_code": "244"
        },
        {
          "name": "Antarctica",
          "english_name": "Antarctica",
          "name_code": "aq",
          "phone_code": "672"
        },
        {
          "name": "Argentina",
          "english_name": "Argentina",
          "name_code": "ar",
          "phone_code": "54"
        },
        {
          "name": "American Samoa",
          "english_name": "American Samoa",
          "name_code": "as",
          "phone_code": "1"
        },
        {
          "name": "Austria",
          "english_name": "Austria",
          "name_code": "at",
          "phone_code": "43"
        },
        {
          "name": "Australia",
          "english_name": "Australia",
          "name_code": "au",
          "phone_code": "61"
        },
        {
          "name": "Aruba",
          "english_name": "Aruba",
          "name_code": "aw",
          "phone_code": "297"
        },
        {
          "name": "Åland Islands",
          "english_name": "Åland Islands",
          "name_code": "ax",
          "phone_code": "358"
        },
        {
          "name": "Azerbaijan",
          "english_name": "Azerbaijan",
          "name_code": "az",
          "phone_code": "994"
        },
        {
          "name": "Bosnia And Herzegovina",
          "english_name": "Bosnia And Herzegovina",
          "name_code": "ba",
          "phone_code": "387"
        },
        {
          "name": "Barbados",
          "english_name": "Barbados",
          "name_code": "bb",
          "phone_code": "1"
        },
        {
          "name": "Bangladesh",
          "english_name": "Bangladesh",
          "name_code": "bd",
          "phone_code": "880"
        },
        {
          "name": "Belgium",
          "english_name": "Belgium",
          "name_code": "be",
          "phone_code": "32"
        },
        {
          "name": "Burkina Faso",
          "english_name": "Burkina Faso",
          "name_code": "bf",
          "phone_code": "226"
        },
        {
          "name": "Bulgaria",
          "english_name": "Bulgaria",
          "name_code": "bg",
          "phone_code": "359"
        },
        {
          "name": "Bahrain",
          "english_name": "Bahrain",
          "name_code": "bh",
          "phone_code": "973"
        },
        {
          "name": "Burundi",
          "english_name": "Burundi",
          "name_code": "bi",
          "phone_code": "257"
        },
        {
          "name": "Benin",
          "english_name": "Benin",
          "name_code": "bj",
          "phone_code": "229"
        },
        {
          "name": "Saint Barthélemy",
          "english_name": "Saint Barthélemy",
          "name_code": "bl",
          "phone_code": "590"
        },
        {
          "name": "Bermuda",
          "english_name": "Bermuda",
          "name_code": "bm",
          "phone_code": "1"
        },
        {
          "name": "Brunei Darussalam",
          "english_name": "Brunei Darussalam",
          "name_code": "bn",
          "phone_code": "673"
        },
        {
          "name": "Bolivia, Plurinational State Of",
          "english_name": "Bolivia, Plurinational State Of",
          "name_code": "bo",
          "phone_code": "591"
        },
        {
          "name": "Brazil",
          "english_name": "Brazil",
          "name_code": "br",
          "phone_code": "55"
        },
        {
          "name": "Bahamas",
          "english_name": "Bahamas",
          "name_code": "bs",
          "phone_code": "1"
        },
        {
          "name": "Bhutan",
          "english_name": "Bhutan",
          "name_code": "bt",
          "phone_code": "975"
        },
        {
          "name": "Botswana",
          "english_name": "Botswana",
          "name_code": "bw",
          "phone_code": "267"
        },
        {
          "name": "Belarus",
          "english_name": "Belarus",
          "name_code": "by",
          "phone_code": "375"
        },
        {
          "name": "Belize",
          "english_name": "Belize",
          "name_code": "bz",
          "phone_code": "501"
        },
        {
          "name": "Canada",
          "english_name": "Canada",
          "name_code": "ca",
          "phone_code": "1"
        },
        {
          "name": "Cocos (keeling) Islands",
          "english_name": "Cocos (keeling) Islands",
          "name_code": "cc",
          "phone_code": "61"
        },
        {
          "name": "Congo, The Democratic Republic Of The",
          "english_name": "Congo, The Democratic Republic Of The",
          "name_code": "cd",
          "phone_code": "243"
        },
        {
          "name": "Central African Republic",
          "english_name": "Central African Republic",
          "name_code": "cf",
          "phone_code": "236"
        },
        {
          "name": "Congo",
          "english_name": "Congo",
          "name_code": "cg",
          "phone_code": "242"
        },
        {
          "name": "Switzerland",
          "english_name": "Switzerland",
          "name_code": "ch",
          "phone_code": "41"
        },
        {
          "name": "Côte D'ivoire",
          "english_name": "Côte D'ivoire",
          "name_code": "ci",
          "phone_code": "225"
        },
        {
          "name": "Cook Islands",
          "english_name": "Cook Islands",
          "name_code": "ck",
          "phone_code": "682"
        },
        {
          "name": "Chile",
          "english_name": "Chile",
          "name_code": "cl",
          "phone_code": "56"
        },
        {
          "name": "Cameroon",
          "english_name": "Cameroon",
          "name_code": "cm",
          "phone_code": "237"
        },
        {
          "name": "China",
          "english_name": "China",
          "name_code": "cn",
          "phone_code": "86"
        },
        {
          "name": "Colombia",
          "english_name": "Colombia",
          "name_code": "co",
          "phone_code": "57"
        },
        {
          "name": "Costa Rica",
          "english_name": "Costa Rica",
          "name_code": "cr",
          "phone_code": "506"
        },
        {
          "name": "Cuba",
          "english_name": "Cuba",
          "name_code": "cu",
          "phone_code": "53"
        },
        {
          "name": "Cape Verde",
          "english_name": "Cape Verde",
          "name_code": "cv",
          "phone_code": "238"
        },
        {
          "name": "Curaçao",
          "english_name": "Curaçao",
          "name_code": "cw",
          "phone_code": "599"
        },
        {
          "name": "Christmas Island",
          "english_name": "Christmas Island",
          "name_code": "cx",
          "phone_code": "61"
        },
        {
          "name": "Cyprus",
          "english_name": "Cyprus",
          "name_code": "cy",
          "phone_code": "357"
        },
        {
          "name": "Czech Republic",
          "english_name": "Czech Republic",
          "name_code": "cz",
          "phone_code": "420"
        },
        {
          "name": "Germany",
          "english_name": "Germany",
          "name_code": "de",
          "phone_code": "49"
        },
        {
          "name": "Djibouti",
          "english_name": "Djibouti",
          "name_code": "dj",
          "phone_code": "253"
        },
        {
          "name": "Denmark",
          "english_name": "Denmark",
          "name_code": "dk",
          "phone_code": "45"
        },
        {
          "name": "Dominica",
          "english_name": "Dominica",
          "name_code": "dm",
          "phone_code": "1"
        },
        {
          "name": "Dominican Republic",
          "english_name": "Dominican Republic",
          "name_code": "do",
          "phone_code": "1"
        },
        {
          "name": "Algeria",
          "english_name": "Algeria",
          "name_code": "dz",
          "phone_code": "213"
        },
        {
          "name": "Ecuador",
          "english_name": "Ecuador",
          "name_code": "ec",
          "phone_code": "593"
        },
        {
          "name": "Estonia",
          "english_name": "Estonia",
          "name_code": "ee",
          "phone_code": "372"
        },
        {
          "name": "Egypt",
          "english_name": "Egypt",
          "name_code": "eg",
          "phone_code": "20"
        },
        {
          "name": "Eritrea",
          "english_name": "Eritrea",
          "name_code": "er",
          "phone_code": "291"
        },
        {
          "name": "Spain",
          "english_name": "Spain",
          "name_code": "es",
          "phone_code": "34"
        },
        {
          "name": "Ethiopia",
          "english_name": "Ethiopia",
          "name_code": "et",
          "phone_code": "251"
        },
        {
          "name": "Finland",
          "english_name": "Finland",
          "name_code": "fi",
          "phone_code": "358"
        },
        {
          "name": "Fiji",
          "english_name": "Fiji",
          "name_code": "fj",
          "phone_code": "679"
        },
        {
          "name": "Falkland Islands (malvinas)",
          "english_name": "Falkland Islands (malvinas)",
          "name_code": "fk",
          "phone_code": "500"
        },
        {
          "name": "Micronesia, Federated States Of",
          "english_name": "Micronesia, Federated States Of",
          "name_code": "fm",
          "phone_code": "691"
        },
        {
          "name": "Faroe Islands",
          "english_name": "Faroe Islands",
          "name_code": "fo",
          "phone_code": "298"
        },
        {
          "name": "France",
          "english_name": "France",
          "name_code": "fr",
          "phone_code": "33"
        },
        {
          "name": "Gabon",
          "english_name": "Gabon",
          "name_code": "ga",
          "phone_code": "241"
        },
        {
          "name": "United Kingdom",
          "english_name": "United Kingdom",
          "name_code": "gb",
          "phone_code": "44"
        },
        {
          "name": "Grenada",
          "english_name": "Grenada",
          "name_code": "gd",
          "phone_code": "1"
        },
        {
          "name": "Georgia",
          "english_name": "Georgia",
          "name_code": "ge",
          "phone_code": "995"
        },
        {
          "name": "French Guyana",
          "english_name": "French Guyana",
          "name_code": "gf",
          "phone_code": "594"
        },
        {
          "name": "Guernsey",
          "english_name": "Guernsey",
          "name_code": "gg",
          "phone_code": "44"
        },
        {
          "name": "Ghana",
          "english_name": "Ghana",
          "name_code": "gh",
          "phone_code": "233"
        },
        {
          "name": "Gibraltar",
          "english_name": "Gibraltar",
          "name_code": "gi",
          "phone_code": "350"
        },
        {
          "name": "Greenland",
          "english_name": "Greenland",
          "name_code": "gl",
          "phone_code": "299"
        },
        {
          "name": "Gambia",
          "english_name": "Gambia",
          "name_code": "gm",
          "phone_code": "220"
        },
        {
          "name": "Guinea",
          "english_name": "Guinea",
          "name_code": "gn",
          "phone_code": "224"
        },
        {
          "name": "Guadeloupe",
          "english_name": "Guadeloupe",
          "name_code": "gp",
          "phone_code": "590"
        },
        {
          "name": "Equatorial Guinea",
          "english_name": "Equatorial Guinea",
          "name_code": "gq",
          "phone_code": "240"
        },
        {
          "name": "Greece",
          "english_name": "Greece",
          "name_code": "gr",
          "phone_code": "30"
        },
        {
          "name": "Guatemala",
          "english_name": "Guatemala",
          "name_code": "gt",
          "phone_code": "502"
        },
        {
          "name": "Guam",
          "english_name": "Guam",
          "name_code": "gu",
          "phone_code": "1"
        },
        {
          "name": "Guineabissau",
          "english_name": "Guineabissau",
          "name_code": "gw",
          "phone_code": "245"
        },
        {
          "name": "Guyana",
          "english_name": "Guyana",
          "name_code": "gy",
          "phone_code": "592"
        },
        {
          "name": "Hong Kong",
          "english_name": "Hong Kong",
          "name_code": "hk",
          "phone_code": "852"
        },
        {
          "name": "Honduras",
          "english_name": "Honduras",
          "name_code": "hn",
          "phone_code": "504"
        },
        {
          "name": "Croatia",
          "english_name": "Croatia",
          "name_code": "hr",
          "phone_code": "385"
        },
        {
          "name": "Haiti",
          "english_name": "Haiti",
          "name_code": "ht",
          "phone_code": "509"
        },
        {
          "name": "Hungary",
          "english_name": "Hungary",
          "name_code": "hu",
          "phone_code": "36"
        },
        {
          "name": "Indonesia",
          "english_name": "Indonesia",
          "name_code": "id",
          "phone_code": "62"
        },
        {
          "name": "Ireland",
          "english_name": "Ireland",
          "name_code": "ie",
          "phone_code": "353"
        },
        {
          "name": "Israel",
          "english_name": "Israel",
          "name_code": "il",
          "phone_code": "972"
        },
        {
          "name": "Isle Of Man",
          "english_name": "Isle Of Man",
          "name_code": "im",
          "phone_code": "44"
        },
        {
          "name": "Iceland",
          "english_name": "Iceland",
          "name_code": "is",
          "phone_code": "354"
        },
        {
          "name": "India",
          "english_name": "India",
          "name_code": "in",
          "phone_code": "91"
        },
        {
          "name": "British Indian Ocean Territory",
          "english_name": "British Indian Ocean Territory",
          "name_code": "io",
          "phone_code": "246"
        },
        {
          "name": "Iraq",
          "english_name": "Iraq",
          "name_code": "iq",
          "phone_code": "964"
        },
        {
          "name": "Iran, Islamic Republic Of",
          "english_name": "Iran, Islamic Republic Of",
          "name_code": "ir",
          "phone_code": "98"
        },
        {
          "name": "Italy",
          "english_name": "Italy",
          "name_code": "it",
          "phone_code": "39"
        },
        {
          "name": "Jersey",
          "english_name": "Jersey",
          "name_code": "je",
          "phone_code": "44"
        },
        {
          "name": "Jamaica",
          "english_name": "Jamaica",
          "name_code": "jm",
          "phone_code": "1"
        },
        {
          "name": "Jordan",
          "english_name": "Jordan",
          "name_code": "jo",
          "phone_code": "962"
        },
        {
          "name": "Japan",
          "english_name": "Japan",
          "name_code": "jp",
          "phone_code": "81"
        },
        {
          "name": "Kenya",
          "english_name": "Kenya",
          "name_code": "ke",
          "phone_code": "254"
        },
        {
          "name": "Kyrgyzstan",
          "english_name": "Kyrgyzstan",
          "name_code": "kg",
          "phone_code": "996"
        },
        {
          "name": "Cambodia",
          "english_name": "Cambodia",
          "name_code": "kh",
          "phone_code": "855"
        },
        {
          "name": "Kiribati",
          "english_name": "Kiribati",
          "name_code": "ki",
          "phone_code": "686"
        },
        {
          "name": "Comoros",
          "english_name": "Comoros",
          "name_code": "km",
          "phone_code": "269"
        },
        {
          "name": "Saint Kitts and Nevis",
          "english_name": "Saint Kitts and Nevis",
          "name_code": "kn",
          "phone_code": "1"
        },
        {
          "name": "North Korea",
          "english_name": "North Korea",
          "name_code": "kp",
          "phone_code": "850"
        },
        {
          "name": "South Korea",
          "english_name": "South Korea",
          "name_code": "kr",
          "phone_code": "82"
        },
        {
          "name": "Kuwait",
          "english_name": "Kuwait",
          "name_code": "kw",
          "phone_code": "965"
        },
        {
          "name": "Cayman Islands",
          "english_name": "Cayman Islands",
          "name_code": "ky",
          "phone_code": "1"
        },
        {
          "name": "Kazakhstan",
          "english_name": "Kazakhstan",
          "name_code": "kz",
          "phone_code": "7"
        },
        {
          "name": "Lao People's Democratic Republic",
          "english_name": "Lao People's Democratic Republic",
          "name_code": "la",
          "phone_code": "856"
        },
        {
          "name": "Lebanon",
          "english_name": "Lebanon",
          "name_code": "lb",
          "phone_code": "961"
        },
        {
          "name": "Saint Lucia",
          "english_name": "Saint Lucia",
          "name_code": "lc",
          "phone_code": "1"
        },
        {
          "name": "Liechtenstein",
          "english_name": "Liechtenstein",
          "name_code": "li",
          "phone_code": "423"
        },
        {
          "name": "Sri Lanka",
          "english_name": "Sri Lanka",
          "name_code": "lk",
          "phone_code": "94"
        },
        {
          "name": "Liberia",
          "english_name": "Liberia",
          "name_code": "lr",
          "phone_code": "231"
        },
        {
          "name": "Lesotho",
          "english_name": "Lesotho",
          "name_code": "ls",
          "phone_code": "266"
        },
        {
          "name": "Lithuania",
          "english_name": "Lithuania",
          "name_code": "lt",
          "phone_code": "370"
        },
        {
          "name": "Luxembourg",
          "english_name": "Luxembourg",
          "name_code": "lu",
          "phone_code": "352"
        },
        {
          "name": "Latvia",
          "english_name": "Latvia",
          "name_code": "lv",
          "phone_code": "371"
        },
        {
          "name": "Libya",
          "english_name": "Libya",
          "name_code": "ly",
          "phone_code": "218"
        },
        {
          "name": "Morocco",
          "english_name": "Morocco",
          "name_code": "ma",
          "phone_code": "212"
        },
        {
          "name": "Monaco",
          "english_name": "Monaco",
          "name_code": "mc",
          "phone_code": "377"
        },
        {
          "name": "Moldova, Republic Of",
          "english_name": "Moldova, Republic Of",
          "name_code": "md",
          "phone_code": "373"
        },
        {
          "name": "Montenegro",
          "english_name": "Montenegro",
          "name_code": "me",
          "phone_code": "382"
        },
        {
          "name": "Saint Martin",
          "english_name": "Saint Martin",
          "name_code": "mf",
          "phone_code": "590"
        },
        {
          "name": "Madagascar",
          "english_name": "Madagascar",
          "name_code": "mg",
          "phone_code": "261"
        },
        {
          "name": "Marshall Islands",
          "english_name": "Marshall Islands",
          "name_code": "mh",
          "phone_code": "692"
        },
        {
          "name": "Macedonia (FYROM)",
          "english_name": "Macedonia (FYROM)",
          "name_code": "mk",
          "phone_code": "389"
        },
        {
          "name": "Mali",
          "english_name": "Mali",
          "name_code": "ml",
          "phone_code": "223"
        },
        {
          "name": "Myanmar",
          "english_name": "Myanmar",
          "name_code": "mm",
          "phone_code": "95"
        },
        {
          "name": "Mongolia",
          "english_name": "Mongolia",
          "name_code": "mn",
          "phone_code": "976"
        },
        {
          "name": "Macau",
          "english_name": "Macau",
          "name_code": "mo",
          "phone_code": "853"
        },
        {
          "name": "Northern Mariana Islands",
          "english_name": "Northern Mariana Islands",
          "name_code": "mp",
          "phone_code": "1"
        },
        {
          "name": "Martinique",
          "english_name": "Martinique",
          "name_code": "mq",
          "phone_code": "596"
        },
        {
          "name": "Mauritania",
          "english_name": "Mauritania",
          "name_code": "mr",
          "phone_code": "222"
        },
        {
          "name": "Montserrat",
          "english_name": "Montserrat",
          "name_code": "ms",
          "phone_code": "1"
        },
        {
          "name": "Malta",
          "english_name": "Malta",
          "name_code": "mt",
          "phone_code": "356"
        },
        {
          "name": "Mauritius",
          "english_name": "Mauritius",
          "name_code": "mu",
          "phone_code": "230"
        },
        {
          "name": "Maldives",
          "english_name": "Maldives",
          "name_code": "mv",
          "phone_code": "960"
        },
        {
          "name": "Malawi",
          "english_name": "Malawi",
          "name_code": "mw",
          "phone_code": "265"
        },
        {
          "name": "Mexico",
          "english_name": "Mexico",
          "name_code": "mx",
          "phone_code": "52"
        },
        {
          "name": "Malaysia",
          "english_name": "Malaysia",
          "name_code": "my",
          "phone_code": "60"
        },
        {
          "name": "Mozambique",
          "english_name": "Mozambique",
          "name_code": "mz",
          "phone_code": "258"
        },
        {
          "name": "Namibia",
          "english_name": "Namibia",
          "name_code": "na",
          "phone_code": "264"
        },
        {
          "name": "New Caledonia",
          "english_name": "New Caledonia",
          "name_code": "nc",
          "phone_code": "687"
        },
        {
          "name": "Niger",
          "english_name": "Niger",
          "name_code": "ne",
          "phone_code": "227"
        },
        {
          "name": "Norfolk Islands",
          "english_name": "Norfolk Islands",
          "name_code": "nf",
          "phone_code": "672"
        },
        {
          "name": "Nigeria",
          "english_name": "Nigeria",
          "name_code": "ng",
          "phone_code": "234"
        },
        {
          "name": "Nicaragua",
          "english_name": "Nicaragua",
          "name_code": "ni",
          "phone_code": "505"
        },
        {
          "name": "Netherlands",
          "english_name": "Netherlands",
          "name_code": "nl",
          "phone_code": "31"
        },
        {
          "name": "Norway",
          "english_name": "Norway",
          "name_code": "no",
          "phone_code": "47"
        },
        {
          "name": "Nepal",
          "english_name": "Nepal",
          "name_code": "np",
          "phone_code": "977"
        },
        {
          "name": "Nauru",
          "english_name": "Nauru",
          "name_code": "nr",
          "phone_code": "674"
        },
        {
          "name": "Niue",
          "english_name": "Niue",
          "name_code": "nu",
          "phone_code": "683"
        },
        {
          "name": "New Zealand",
          "english_name": "New Zealand",
          "name_code": "nz",
          "phone_code": "64"
        },
        {
          "name": "Oman",
          "english_name": "Oman",
          "name_code": "om",
          "phone_code": "968"
        },
        {
          "name": "Panama",
          "english_name": "Panama",
          "name_code": "pa",
          "phone_code": "507"
        },
        {
          "name": "Peru",
          "english_name": "Peru",
          "name_code": "pe",
          "phone_code": "51"
        },
        {
          "name": "French Polynesia",
          "english_name": "French Polynesia",
          "name_code": "pf",
          "phone_code": "689"
        },
        {
          "name": "Papua New Guinea",
          "english_name": "Papua New Guinea",
          "name_code": "pg",
          "phone_code": "675"
        },
        {
          "name": "Philippines",
          "english_name": "Philippines",
          "name_code": "ph",
          "phone_code": "63"
        },
        {
          "name": "Pakistan",
          "english_name": "Pakistan",
          "name_code": "pk",
          "phone_code": "92"
        },
        {
          "name": "Poland",
          "english_name": "Poland",
          "name_code": "pl",
          "phone_code": "48"
        },
        {
          "name": "Saint Pierre And Miquelon",
          "english_name": "Saint Pierre And Miquelon",
          "name_code": "pm",
          "phone_code": "508"
        },
        {
          "name": "Pitcairn Islands",
          "english_name": "Pitcairn Islands",
          "name_code": "pn",
          "phone_code": "870"
        },
        {
          "name": "Puerto Rico",
          "english_name": "Puerto Rico",
          "name_code": "pr",
          "phone_code": "1"
        },
        {
          "name": "Palestine",
          "english_name": "Palestine",
          "name_code": "ps",
          "phone_code": "970"
        },
        {
          "name": "Portugal",
          "english_name": "Portugal",
          "name_code": "pt",
          "phone_code": "351"
        },
        {
          "name": "Palau",
          "english_name": "Palau",
          "name_code": "pw",
          "phone_code": "680"
        },
        {
          "name": "Paraguay",
          "english_name": "Paraguay",
          "name_code": "py",
          "phone_code": "595"
        },
        {
          "name": "Qatar",
          "english_name": "Qatar",
          "name_code": "qa",
          "phone_code": "974"
        },
        {
          "name": "Réunion",
          "english_name": "Réunion",
          "name_code": "re",
          "phone_code": "262"
        },
        {
          "name": "Romania",
          "english_name": "Romania",
          "name_code": "ro",
          "phone_code": "40"
        },
        {
          "name": "Serbia",
          "english_name": "Serbia",
          "name_code": "rs",
          "phone_code": "381"
        },
        {
          "name": "Russian Federation",
          "english_name": "Russian Federation",
          "name_code": "ru",
          "phone_code": "7"
        },
        {
          "name": "Rwanda",
          "english_name": "Rwanda",
          "name_code": "rw",
          "phone_code": "250"
        },
        {
          "name": "Saudi Arabia",
          "english_name": "Saudi Arabia",
          "name_code": "sa",
          "phone_code": "966"
        },
        {
          "name": "Solomon Islands",
          "english_name": "Solomon Islands",
          "name_code": "sb",
          "phone_code": "677"
        },
        {
          "name": "Seychelles",
          "english_name": "Seychelles",
          "name_code": "sc",
          "phone_code": "248"
        },
        {
          "name": "Sudan",
          "english_name": "Sudan",
          "name_code": "sd",
          "phone_code": "249"
        },
        {
          "name": "Sweden",
          "english_name": "Sweden",
          "name_code": "se",
          "phone_code": "46"
        },
        {
          "name": "Singapore",
          "english_name": "Singapore",
          "name_code": "sg",
          "phone_code": "65"
        },
        {
          "name": "Saint Helena, Ascension And Tristan Da Cunha",
          "english_name": "Saint Helena, Ascension And Tristan Da Cunha",
          "name_code": "sh",
          "phone_code": "290"
        },
        {
          "name": "Slovenia",
          "english_name": "Slovenia",
          "name_code": "si",
          "phone_code": "386"
        },
        {
          "name": "Slovakia",
          "english_name": "Slovakia",
          "name_code": "sk",
          "phone_code": "421"
        },
        {
          "name": "Sierra Leone",
          "english_name": "Sierra Leone",
          "name_code": "sl",
          "phone_code": "232"
        },
        {
          "name": "San Marino",
          "english_name": "San Marino",
          "name_code": "sm",
          "phone_code": "378"
        },
        {
          "name": "Senegal",
          "english_name": "Senegal",
          "name_code": "sn",
          "phone_code": "221"
        },
        {
          "name": "Somalia",
          "english_name": "Somalia",
          "name_code": "so",
          "phone_code": "252"
        },
        {
          "name": "Suriname",
          "english_name": "Suriname",
          "name_code": "sr",
          "phone_code": "597"
        },
        {
          "name": "South Sudan",
          "english_name": "South Sudan",
          "name_code": "ss",
          "phone_code": "211"
        },
        {
          "name": "Sao Tome And Principe",
          "english_name": "Sao Tome And Principe",
          "name_code": "st",
          "phone_code": "239"
        },
        {
          "name": "El Salvador",
          "english_name": "El Salvador",
          "name_code": "sv",
          "phone_code": "503"
        },
        {
          "name": "Sint Maarten",
          "english_name": "Sint Maarten",
          "name_code": "sx",
          "phone_code": "1"
        },
        {
          "name": "Syrian Arab Republic",
          "english_name": "Syrian Arab Republic",
          "name_code": "sy",
          "phone_code": "963"
        },
        {
          "name": "Swaziland",
          "english_name": "Swaziland",
          "name_code": "sz",
          "phone_code": "268"
        },
        {
          "name": "Turks and Caicos Islands",
          "english_name": "Turks and Caicos Islands",
          "name_code": "tc",
          "phone_code": "1"
        },
        {
          "name": "Chad",
          "english_name": "Chad",
          "name_code": "td",
          "phone_code": "235"
        },
        {
          "name": "Togo",
          "english_name": "Togo",
          "name_code": "tg",
          "phone_code": "228"
        },
        {
          "name": "Thailand",
          "english_name": "Thailand",
          "name_code": "th",
          "phone_code": "66"
        },
        {
          "name": "Tajikistan",
          "english_name": "Tajikistan",
          "name_code": "tj",
          "phone_code": "992"
        },
        {
          "name": "Tokelau",
          "english_name": "Tokelau",
          "name_code": "tk",
          "phone_code": "690"
        },
        {
          "name": "Timorleste",
          "english_name": "Timorleste",
          "name_code": "tl",
          "phone_code": "670"
        },
        {
          "name": "Turkmenistan",
          "english_name": "Turkmenistan",
          "name_code": "tm",
          "phone_code": "993"
        },
        {
          "name": "Tunisia",
          "english_name": "Tunisia",
          "name_code": "tn",
          "phone_code": "216"
        },
        {
          "name": "Tonga",
          "english_name": "Tonga",
          "name_code": "to",
          "phone_code": "676"
        },
        {
          "name": "Turkey",
          "english_name": "Turkey",
          "name_code": "tr",
          "phone_code": "90"
        },
        {
          "name": "Trinidad & Tobago",
          "english_name": "Trinidad & Tobago",
          "name_code": "tt",
          "phone_code": "1"
        },
        {
          "name": "Tuvalu",
          "english_name": "Tuvalu",
          "name_code": "tv",
          "phone_code": "688"
        },
        {
          "name": "Taiwan",
          "english_name": "Taiwan",
          "name_code": "tw",
          "phone_code": "886"
        },
        {
          "name": "Tanzania, United Republic Of",
          "english_name": "Tanzania, United Republic Of",
          "name_code": "tz",
          "phone_code": "255"
        },
        {
          "name": "Ukraine",
          "english_name": "Ukraine",
          "name_code": "ua",
          "phone_code": "380"
        },
        {
          "name": "Uganda",
          "english_name": "Uganda",
          "name_code": "ug",
          "phone_code": "256"
        },
        {
          "name": "United States",
          "english_name": "United States (USA)",
          "name_code": "us",
          "phone_code": "1"
        },
        {
          "name": "Uruguay",
          "english_name": "Uruguay",
          "name_code": "uy",
          "phone_code": "598"
        },
        {
          "name": "Uzbekistan",
          "english_name": "Uzbekistan",
          "name_code": "uz",
          "phone_code": "998"
        },
        {
          "name": "Holy See (vatican City State)",
          "english_name": "Holy See (vatican City State)",
          "name_code": "va",
          "phone_code": "379"
        },
        {
          "name": "Saint Vincent & The Grenadines",
          "english_name": "Saint Vincent & The Grenadines",
          "name_code": "vc",
          "phone_code": "1"
        },
        {
          "name": "Venezuela, Bolivarian Republic Of",
          "english_name": "Venezuela, Bolivarian Republic Of",
          "name_code": "ve",
          "phone_code": "58"
        },
        {
          "name": "British Virgin Islands",
          "english_name": "British Virgin Islands",
          "name_code": "vg",
          "phone_code": "1"
        },
        {
          "name": "US Virgin Islands",
          "english_name": "US Virgin Islands",
          "name_code": "vi",
          "phone_code": "1"
        },
        {
          "name": "Vietnam",
          "english_name": "Vietnam",
          "name_code": "vn",
          "phone_code": "84"
        },
        {
          "name": "Vanuatu",
          "english_name": "Vanuatu",
          "name_code": "vu",
          "phone_code": "678"
        },
        {
          "name": "Wallis And Futuna",
          "english_name": "Wallis And Futuna",
          "name_code": "wf",
          "phone_code": "681"
        },
        {
          "name": "Samoa",
          "english_name": "Samoa",
          "name_code": "ws",
          "phone_code": "685"
        },
        {
          "name": "Kosovo",
          "english_name": "Kosovo",
          "name_code": "xk",
          "phone_code": "383"
        },
        {
          "name": "Yemen",
          "english_name": "Yemen",
          "name_code": "ye",
          "phone_code": "967"
        },
        {
          "name": "Mayotte",
          "english_name": "Mayotte",
          "name_code": "yt",
          "phone_code": "262"
        },
        {
          "name": "South Africa",
          "english_name": "South Africa",
          "name_code": "za",
          "phone_code": "27"
        },
        {
          "name": "Zambia",
          "english_name": "Zambia",
          "name_code": "zm",
          "phone_code": "260"
        },
        {
          "name": "Zimbabwe",
          "english_name": "Zimbabwe",
          "name_code": "zw",
          "phone_code": "263"
        }
      ]
    }
  }
}